HORIZONS-2              
1 32388C 07063B   23261.00000000 -.00000154  00000-0  00000-0 0  2617
2 32388   0.0000 214.9116 0002077 322.2351 105.7378  1.00271760    10
HORIZONS-2          [PM]
1 32388C 07063B   23263.95649306 -.00000166  00000-0  00000-0 0  2636
2 32388   0.0042 114.6624 0002094  61.7755  93.6913  1.00273712    17
GALAXY 18 (G-18)        
1 32951C 08024A   23257.00000000  .00000105  00000-0  00000-0 0  2576
2 32951   0.0034 145.3272 0002901  32.9826  51.4132  1.00272161    12
GALAXY 18 (G-18)        
1 32951C 08024A   23261.00000000  .00000115  00000-0  00000-0 0  2617
2 32951   0.0296 265.2956 0003079 273.5540  54.8253  1.00272483    14
GALAXY 18 (G-18)    [PM]
1 32951C 08024A   23261.77083333  .00000115  00000-0  00000-0 0  2611
2 32951   0.0272 267.5532 0003123 271.6414 332.7381  1.00271720    15
INTELSAT 25 (IS-25) [PM]
1 33153C 08034A   23254.35416667 -.00000134  00000-0  00000-0 0  2547
2 33153   0.0929  91.8673 0002943  89.6722 264.5694  1.00273296    10
INTELSAT 25 (IS-25)     
1 33153C 08034A   23257.00000000 -.00000134  00000-0  00000-0 0  2575
2 33153   0.0976  91.9335 0002929  89.6424 139.6581  1.00272419    14
INTELSAT 25 (IS-25)     
1 33153C 08034A   23261.00000000 -.00000134  00000-0  00000-0 0  2615
2 33153   0.1071  88.4742 0003081  94.6613 142.0503  1.00271752    11
GALAXY 19 (G-19)        
1 33376C 08045A   23257.00000000 -.00000052  00000-0  00000-0 0  2573
2 33376   0.0028 146.2345 0002652  24.7259  84.7646  1.00272052    18
GALAXY 19 (G-19)        
1 33376C 08045A   23261.00000000 -.00000052  00000-0  00000-0 0  2613
2 33376   0.0061 223.8673 0002788 310.7447  85.0716  1.00273822    16
GALAXY 19 (G-19)    [PM]
1 33376C 08045A   23262.52223380 -.00000118  00000-0  00000-0 0  2623
2 33376   0.0000 207.7695 0002825 327.5715 273.8565  1.00272025    13
INTELSAT 14 (IS-14)     
1 36097C 09064A   23257.00000000 -.00000269  00000-0  00000-0 0  2578
2 36097   0.0181 234.9877 0002191 320.1200 112.6025  1.00277093    15
INTELSAT 14 (IS-14)     
1 36097C 09064A   23261.00000000 -.00000192  00000-0  00000-0 0  2613
2 36097   0.0024 222.9877 0002290 325.1303 123.5612  1.00272324    12
INTELSAT 14 (IS-14) [PM]
1 36097C 09064A   23262.88333333 -.00000220  00000-0  00000-0 0  2621
2 36097   0.0000 219.7780 0002306 326.5584  85.1999  1.00273370    10
INTELSAT 15 (IS-15)     
1 36106C 09067A   23257.00000000 -.00000127  00000-0  00000-0 0  2575
2 36106   0.0454 349.3289 0002175 180.9503 267.6060  1.00272114    16
INTELSAT 15 (IS-15)     
1 36106C 09067A   23261.00000000 -.00000099  00000-0  00000-0 0  2613
2 36106   0.0366  37.9046 0002312 132.1998 271.7342  1.00271829    10
INTELSAT 15 (IS-15) [PM]
1 36106C 09067A   23261.05489583 -.00000095  00000-0  00000-0 0  2611
2 36106   0.0469 329.6854 0002291 198.7960 293.1733  1.00271238    11
INTELSAT 16 (IS-16)     
1 36397C 10006A   23257.00000000 -.00003249  00000-0  00000-0 0  2570
2 36397   0.0002 113.6330 0001827  57.6505 105.2541  1.00271936    13
INTELSAT 16 (IS-16)     
1 36397C 10006A   23261.00000000 -.00000186  00000-0  00000-0 0  2617
2 36397   0.0442 322.6311 0002140 209.0361 108.8157  1.00271499    10
INTELSAT 16 (IS-16) [PM]
1 36397C 10006A   23261.60950232 -.00000182  00000-0  00000-0 0  2610
2 36397   0.0439 328.4765 0002134 204.8494 327.1775  1.00271434    17
INTELSAT 17 (IS-17)     
1 37238C 10065B   23257.00000000  .00000071  00000-0  00000-0 0  2579
2 37238   0.0086 201.4921 0002664 338.8854 238.3574  1.00278789    10
INTELSAT 17 (IS-17)     
1 37238C 10065B   23261.00000000  .00000089  00000-0  00000-0 0  2618
2 37238   0.0282 258.4361 0002633 270.5184 253.7306  1.00270824    18
INTELSAT 17 (IS-17) [PM]
1 37238C 10065B   23263.52495370  .00000088  00000-0  00000-0 0  2636
2 37238   0.0135 244.7378 0002628 285.0730  84.3394  1.00271792    13
INTELSAT NEW DAWN       
1 37392C 11016A   23257.00000000  .00000245  00000-0  00000-0 0  2570
2 37392   0.0297 233.6228 0001298 330.3470 181.5583  1.00272120    17
INTELSAT NEW DAWN       
1 37392C 11016A   23261.00000000  .00000240  00000-0  00000-0 0  2615
2 37392   0.0158 225.1382 0001457 313.0999 211.2425  1.00267562    11
INTELSAT NEW DAWN   [PM]
1 37392C 11016A   23261.19098380  .00000172  00000-0  00000-0 0  2617
2 37392   0.0646 330.6874 0001586 283.4493 204.2788  1.00271121    13
INTELSAT NEW DAWN   [PM]
1 37392C 11016A   23262.39013889  .00000246  00000-0  00000-0 0  2624
2 37392   0.0384 260.7821 0001572 285.8199 344.6935  1.00270866    19
INTELSAT 18 (IS-18)     
1 37834C 11056A   23257.00000000 -.00000132  00000-0  00000-0 0  2571
2 37834   0.0000 175.8357 0001764   7.3268 349.5682  1.00270148    18
INTELSAT 18 (IS-18)     
1 37834C 11056A   23261.00000000  .00000143  00000-0  00000-0 0  2612
2 37834   0.0151 245.6423 0001955 299.2810 351.7486  1.00273966    10
INTELSAT 18 (IS-18) [PM]
1 37834C 11056A   23263.72799769  .00000075  00000-0  00000-0 0  2636
2 37834   0.0000 206.9462 0001974 329.4953 265.0195  1.00268820    18
INTELSAT 22 (IS-22)     
1 38098C 12011A   23257.00000000  .00000032  00000-0  00000-0 0  2574
2 38098   0.0043 146.2165 0002733  33.6497 244.9750  1.00272506    14
INTELSAT 22 (IS-22)     
1 38098C 12011A   23261.00000000  .00000030  00000-0  00000-0 0  2612
2 38098   0.0276 260.0109 0002855 275.5751 253.1990  1.00272006    13
INTELSAT 22 (IS-22) [PM]
1 38098C 12011A   23262.02807870  .00000031  00000-0  00000-0 0  2627
2 38098   0.0198 254.5104 0002847 279.5063 265.8936  1.00271577    12
INTELSAT 19 (IS-19)     
1 38356C 12030A   23257.00000000 -.00000060  00000-0  00000-0 0  2574
2 38356   0.0485 335.6215 0003052 206.9792 336.1168  1.00272023    10
INTELSAT 19 (IS-19)     
1 38356C 12030A   23261.00000000  .00000443  00000-0  00000-0 0  2618
2 38356   0.0223 271.6107 0003159 269.8948 341.1720  1.00272791    10
INTELSAT 19 (IS-19) [PM]
1 38356C 12030A   23263.75138889  .00000034  00000-0  00000-0 0  2637
2 38356   0.0001 232.2416 0003171 309.4811 254.1811  1.00271562    13
INTELSAT 20 (IS-20) [PM]
1 38740C 12043A   23256.33613426  .00000066  00000-0  00000-0 0  2566
2 38740   0.0655 311.7159 0001760 349.4404 240.4102  1.00271918    12
INTELSAT 20 (IS-20)     
1 38740C 12043A   23257.00000000  .00000066  00000-0  00000-0 0  2570
2 38740   0.0121 157.4319 0001754  24.1373 239.6491  1.00271223    18
INTELSAT 20 (IS-20)     
1 38740C 12043A   23261.00000000  .00000066  00000-0  00000-0 0  2610
2 38740   0.0116 148.9351 0001894  27.4859 248.7514  1.00272131    19
INTELSAT 21 (IS-21)     
1 38749C 12045A   23257.00000000 -.00002446  00000-0  00000-0 0  2576
2 38749   0.0000 177.7583 0002298   2.1853 114.7791  1.00273141    11
INTELSAT 21 (IS-21)     
1 38749C 12045A   23261.00000000 -.00000239  00000-0  00000-0 0  2614
2 38749   0.0419   6.3031 0002438 172.7368 119.6407  1.00271880    17
INTELSAT 21 (IS-21) [PM]
1 38749C 12045A   23262.84486111 -.00000196  00000-0  00000-0 0  2621
2 38749   0.0230  72.3817 0002412 104.5739  67.6909  1.00273455    19
INTELSAT 23 (IS-23)     
1 38867C 12057A   23257.00000000 -.00000195  00000-0  00000-0 0  2579
2 38867   0.0509 252.8390 0001629 279.4216 127.4789  1.00269693    11
INTELSAT 23 (IS-23)     
1 38867C 12057A   23261.00000000 -.00000195  00000-0  00000-0 0  2619
2 38867   0.0382 250.3328 0001606 270.1543 143.1637  1.00273370    14
INTELSAT 23 (IS-23) [PM]
1 38867C 12057A   23261.37695602 -.00000195  00000-0  00000-0 0  2617
2 38867   0.0705   2.7097 0001398 286.9123 150.1454  1.00272142    13
INTELSAT 30 (IS-30) [PM]
1 40271C 14062A   23256.41850694 -.00000048  00000-0  00000-0 0  2561
2 40271   0.0582 334.2469 0002152 251.0086 182.4962  1.00273576    18
INTELSAT 30 (IS-30)     
1 40271C 14062A   23257.00000000 -.00000065  00000-0  00000-0 0  2575
2 40271   0.0005 166.6558 0001971 272.0041 179.0053  1.00271118    19
INTELSAT 30 (IS-30)     
1 40271C 14062A   23261.00000000 -.00000062  00000-0  00000-0 0  2612
2 40271   0.0044 218.0176 0002506 226.0922 177.5182  1.00271079    14
INTELSAT 30 (IS-30) [PM]
1 40271C 14062A   23262.55328704 -.00000062  00000-0  00000-0 0  2628
2 40271   0.0067 233.6093 0002536 210.8057  17.9315  1.00271365    16
INTELSAT 34 (IS-34)     
1 40874C 15039A   23257.00000000 -.00000214  00000-0  00000-0 0  2575
2 40874   0.0543 311.9471 0001672  65.3628 279.9223  1.00269864    10
INTELSAT 34 (IS-34) [PM]
1 40874C 15039A   23257.29375000 -.00000185  00000-0  00000-0 0  2578
2 40874   0.0624 342.7110 0001415 144.9840 275.5701  1.00273553    10
INTELSAT 34 (IS-34)     
1 40874C 15039A   23261.00000000 -.00000195  00000-0  00000-0 0  2613
2 40874   0.0534 296.4827 0001436  97.0415 267.6622  1.00271226    18
INTELSAT 31 (IS-31)     
1 41581C 16035A   23257.00000000 -.00000061  00000-0  00000-0 0  2578
2 41581   0.0339 237.8930 0001115 338.5544  41.2272  1.00270059    11
INTELSAT 31 (IS-31) [PM]
1 41581C 16035A   23257.44030093 -.00000038  00000-0  00000-0 0  2575
2 41581   0.0683 352.1928 0000978  18.1355  46.2858  1.00273294    17
INTELSAT 31 (IS-31)     
1 41581C 16035A   23261.00000000 -.00000061  00000-0  00000-0 0  2618
2 41581   0.0339 249.5079 0001138 308.4630  63.6605  1.00271349    13
INTELSAT 36 (IS-36) [PM]
1 41747C 16053A   23256.33633102  .00000053  00000-0  00000-0 0  2561
2 41747   0.0556 326.3117 0002650 165.2900  50.0494  1.00271624    16
INTELSAT 36 (IS-36)     
1 41747C 16053A   23257.00000000  .00000061  00000-0  00000-0 0  2571
2 41747   0.0001 134.0837 0002612 236.7288  50.4191  1.00270812    11
INTELSAT 36 (IS-36)     
1 41747C 16053A   23261.00000000  .00000060  00000-0  00000-0 0  2610
2 41747   0.0001 152.9803 0002524 222.4282  49.7710  1.00271381    11
INTELSAT 33E            
1 41748C 16053B   23257.00000000  .00000136  00000-0  00000-0 0  2575
2 41748   0.0351 263.5288 0001957 269.0846 240.1155  1.00271772    12
